[{"OBJECT_NAME":"STARLINK-33717","OBJECT_ID":"2025-083Q","EPOCH":"2025-11-02T11:23:20.960160","MEAN_MOTION":15.27614592,"ECCENTRICITY":7.87e-5,"INCLINATION":43.0038,"RA_OF_ASC_NODE":3.4204,"ARG_OF_PERICENTER":249.0292,"MEAN_ANOMALY":111.0475,"EPHEMERIS_TYPE":0,"CLASSIFICATION_TYPE":"U","NORAD_CAT_ID":63648,"ELEMENT_SET_NO":999,"REV_AT_EPOCH":3061,"BSTAR":0.0014919,"MEAN_MOTION_DOT":0.00041064,"MEAN_MOTION_DDOT":0},{"OBJECT_NAME":"STARLINK-33684","OBJECT_ID":"2025-083R","EPOCH":"2025-11-02T11:12:17.381376","MEAN_MOTION":15.27594811,"ECCENTRICITY":1.78e-5,"INCLINATION":43.0073,"RA_OF_ASC_NODE":3.3616,"ARG_OF_PERICENTER":268.7922,"MEAN_ANOMALY":91.2909,"EPHEMERIS_TYPE":0,"CLASSIFICATION_TYPE":"U","NORAD_CAT_ID":63649,"ELEMENT_SET_NO":999,"REV_AT_EPOCH":3061,"BSTAR":0.00099324,"MEAN_MOTION_DOT":0.00027183,"MEAN_MOTION_DDOT":0},{"OBJECT_NAME":"STARLINK-33704","OBJECT_ID":"2025-083S","EPOCH":"2025-11-01T21:36:20.492352","MEAN_MOTION":15.27587506,"ECCENTRICITY":0.00014473,"INCLINATION":43.0037,"RA_OF_ASC_NODE":6.853,"ARG_OF_PERICENTER":290.8606,"MEAN_ANOMALY":69.2091,"EPHEMERIS_TYPE":0,"CLASSIFICATION_TYPE":"U","NORAD_CAT_ID":63650,"ELEMENT_SET_NO":999,"REV_AT_EPOCH":3052,"BSTAR":0.0015146145,"MEAN_MOTION_DOT":0.00041662,"MEAN_MOTION_DDOT":0},{"OBJECT_NAME":"STARLINK-33705","OBJECT_ID":"2025-083T","EPOCH":"2025-11-02T11:38:11.629248","MEAN_MOTION":15.27580905,"ECCENTRICITY":0.0001589,"INCLINATION":43.0046,"RA_OF_ASC_NODE":3.4907,"ARG_OF_PERICENTER":251.11,"MEAN_ANOMALY":108.958,"EPHEMERIS_TYPE":0,"CLASSIFICATION_TYPE":"U","NORAD_CAT_ID":63651,"ELEMENT_SET_NO":999,"REV_AT_EPOCH":3064,"BSTAR":0.00088962,"MEAN_MOTION_DOT":0.000243,"MEAN_MOTION_DDOT":0},{"OBJECT_NAME":"STARLINK-33663","OBJECT_ID":"2025-083U","EPOCH":"2025-11-01T21:19:40.553184","MEAN_MOTION":15.27588639,"ECCENTRICITY":0.00019949,"INCLINATION":43.0018,"RA_OF_ASC_NODE":6.7551,"ARG_OF_PERICENTER":253.713,"MEAN_ANOMALY":106.3502,"EPHEMERIS_TYPE":0,"CLASSIFICATION_TYPE":"U","NORAD_CAT_ID":63652,"ELEMENT_SET_NO":999,"REV_AT_EPOCH":3052,"BSTAR":0.001297037,"MEAN_MOTION_DOT":0.00035612,"MEAN_MOTION_DDOT":0},{"OBJECT_NAME":"STARLINK-33866","OBJECT_ID":"2025-083V","EPOCH":"2025-11-02T10:37:20.481024","MEAN_MOTION":15.27594966,"ECCENTRICITY":0.000192,"INCLINATION":43.002,"RA_OF_ASC_NODE":4.0427,"ARG_OF_PERICENTER":254.6115,"MEAN_ANOMALY":105.4524,"EPHEMERIS_TYPE":0,"CLASSIFICATION_TYPE":"U","NORAD_CAT_ID":63653,"ELEMENT_SET_NO":999,"REV_AT_EPOCH":3063,"BSTAR":0.00086345,"MEAN_MOTION_DOT":0.00023585,"MEAN_MOTION_DDOT":0},{"OBJECT_NAME":"STARLINK-33849","OBJECT_ID":"2025-083W","EPOCH":"2025-11-02T10:33:38.617056","MEAN_MOTION":15.27588158,"ECCENTRICITY":9.41e-5,"INCLINATION":43.0007,"RA_OF_ASC_NODE":4.0238,"ARG_OF_PERICENTER":239.964,"MEAN_ANOMALY":120.1118,"EPHEMERIS_TYPE":0,"CLASSIFICATION_TYPE":"U","NORAD_CAT_ID":63654,"ELEMENT_SET_NO":999,"REV_AT_EPOCH":3060,"BSTAR":0.00097927,"MEAN_MOTION_DOT":0.0002679,"MEAN_MOTION_DDOT":0},{"OBJECT_NAME":"STARLINK-33873","OBJECT_ID":"2025-083X","EPOCH":"2025-11-02T10:35:29.748192","MEAN_MOTION":15.27588893,"ECCENTRICITY":4.77e-5,"INCLINATION":42.999,"RA_OF_ASC_NODE":4.0324,"ARG_OF_PERICENTER":119.5937,"MEAN_ANOMALY":240.4962,"EPHEMERIS_TYPE":0,"CLASSIFICATION_TYPE":"U","NORAD_CAT_ID":63655,"ELEMENT_SET_NO":999,"REV_AT_EPOCH":3063,"BSTAR":0.00084191,"MEAN_MOTION_DOT":0.00022984,"MEAN_MOTION_DDOT":0},{"OBJECT_NAME":"STARLINK-33772","OBJECT_ID":"2025-083Y","EPOCH":"2025-11-01T21:38:10.385376","MEAN_MOTION":15.27586235,"ECCENTRICITY":0.0003257,"INCLINATION":42.9994,"RA_OF_ASC_NODE":6.8609,"ARG_OF_PERICENTER":264.2214,"MEAN_ANOMALY":95.8266,"EPHEMERIS_TYPE":0,"CLASSIFICATION_TYPE":"U","NORAD_CAT_ID":63656,"ELEMENT_SET_NO":999,"REV_AT_EPOCH":3055,"BSTAR":0.0012293808,"MEAN_MOTION_DOT":0.00033732,"MEAN_MOTION_DDOT":0},{"OBJECT_NAME":"STARLINK-33789","OBJECT_ID":"2025-083Z","EPOCH":"2025-11-01T15:10:26.881248","MEAN_MOTION":15.27595391,"ECCENTRICITY":0.00014415,"INCLINATION":43.0035,"RA_OF_ASC_NODE":8.2745,"ARG_OF_PERICENTER":240.8055,"MEAN_ANOMALY":119.2653,"EPHEMERIS_TYPE":0,"CLASSIFICATION_TYPE":"U","NORAD_CAT_ID":63657,"ELEMENT_SET_NO":999,"REV_AT_EPOCH":3051,"BSTAR":0.001571662,"MEAN_MOTION_DOT":0.00043261,"MEAN_MOTION_DDOT":0},{"OBJECT_NAME":"STARLINK-33822","OBJECT_ID":"2025-083AA","EPOCH":"2025-11-02T10:31:48.674784","MEAN_MOTION":15.27590093,"ECCENTRICITY":0.0002142,"INCLINATION":43.0033,"RA_OF_ASC_NODE":4.012,"ARG_OF_PERICENTER":292.0939,"MEAN_ANOMALY":67.9686,"EPHEMERIS_TYPE":0,"CLASSIFICATION_TYPE":"U","NORAD_CAT_ID":63658,"ELEMENT_SET_NO":999,"REV_AT_EPOCH":3063,"BSTAR":0.001145,"MEAN_MOTION_DOT":0.00031391,"MEAN_MOTION_DDOT":0},{"OBJECT_NAME":"STARLINK-33771","OBJECT_ID":"2025-083AB","EPOCH":"2025-11-02T11:33:48.740832","MEAN_MOTION":15.27603693,"ECCENTRICITY":4.66e-5,"INCLINATION":43.0035,"RA_OF_ASC_NODE":7.0064,"ARG_OF_PERICENTER":35.6413,"MEAN_ANOMALY":324.447,"EPHEMERIS_TYPE":0,"CLASSIFICATION_TYPE":"U","NORAD_CAT_ID":63659,"ELEMENT_SET_NO":999,"REV_AT_EPOCH":3060,"BSTAR":0.00095794,"MEAN_MOTION_DOT":0.00026211,"MEAN_MOTION_DDOT":0},{"OBJECT_NAME":"STARLINK-33810","OBJECT_ID":"2025-083AC","EPOCH":"2025-11-02T11:21:32.327712","MEAN_MOTION":15.27611922,"ECCENTRICITY":9.14e-5,"INCLINATION":43.0038,"RA_OF_ASC_NODE":3.4042,"ARG_OF_PERICENTER":249.2123,"MEAN_ANOMALY":110.8631,"EPHEMERIS_TYPE":0,"CLASSIFICATION_TYPE":"U","NORAD_CAT_ID":63660,"ELEMENT_SET_NO":999,"REV_AT_EPOCH":3064,"BSTAR":0.0013408,"MEAN_MOTION_DOT":0.00036853,"MEAN_MOTION_DDOT":0},{"OBJECT_NAME":"STARLINK-33823","OBJECT_ID":"2025-083AD","EPOCH":"2025-11-02T10:26:14.399232","MEAN_MOTION":15.27603637,"ECCENTRICITY":0.0001367,"INCLINATION":43.0014,"RA_OF_ASC_NODE":3.9877,"ARG_OF_PERICENTER":283.6374,"MEAN_ANOMALY":76.4325,"EPHEMERIS_TYPE":0,"CLASSIFICATION_TYPE":"U","NORAD_CAT_ID":63661,"ELEMENT_SET_NO":999,"REV_AT_EPOCH":3063,"BSTAR":0.0012831,"MEAN_MOTION_DOT":0.0003524,"MEAN_MOTION_DDOT":0},{"OBJECT_NAME":"STARLINK-11651 [DTC]","OBJECT_ID":"2025-085A","EPOCH":"2025-11-02T10:42:24.558048","MEAN_MOTION":15.71004333,"ECCENTRICITY":0.0002239,"INCLINATION":42.9993,"RA_OF_ASC_NODE":325.0525,"ARG_OF_PERICENTER":348.9918,"MEAN_ANOMALY":11.0901,"EPHEMERIS_TYPE":0,"CLASSIFICATION_TYPE":"U","NORAD_CAT_ID":63664,"ELEMENT_SET_NO":999,"REV_AT_EPOCH":3024,"BSTAR":0.0026219,"MEAN_MOTION_DOT":0.00353096,"MEAN_MOTION_DDOT":0},{"OBJECT_NAME":"STARLINK-11672 [DTC]","OBJECT_ID":"2025-085B","EPOCH":"2025-11-02T10:34:45.762816","MEAN_MOTION":15.70930508,"ECCENTRICITY":9.19e-5,"INCLINATION":42.9976,"RA_OF_ASC_NODE":325.0082,"ARG_OF_PERICENTER":347.952,"MEAN_ANOMALY":12.1326,"EPHEMERIS_TYPE":0,"CLASSIFICATION_TYPE":"U","NORAD_CAT_ID":63665,"ELEMENT_SET_NO":999,"REV_AT_EPOCH":3084,"BSTAR":0.0023,"MEAN_MOTION_DOT":0.00307015,"MEAN_MOTION_DDOT":0},{"OBJECT_NAME":"STARLINK-11664 [DTC]","OBJECT_ID":"2025-085C","EPOCH":"2025-11-02T10:28:36.844320","MEAN_MOTION":15.71078776,"ECCENTRICITY":0.000179,"INCLINATION":43.0005,"RA_OF_ASC_NODE":325.8685,"ARG_OF_PERICENTER":323.0325,"MEAN_ANOMALY":37.0419,"EPHEMERIS_TYPE":0,"CLASSIFICATION_TYPE":"U","NORAD_CAT_ID":63666,"ELEMENT_SET_NO":999,"REV_AT_EPOCH":3023,"BSTAR":0.0021214,"MEAN_MOTION_DOT":0.0028411,"MEAN_MOTION_DDOT":0},{"OBJECT_NAME":"STARLINK-11666 [DTC]","OBJECT_ID":"2025-085D","EPOCH":"2025-11-02T12:00:02.000160","MEAN_MOTION":15.70844202,"ECCENTRICITY":0.0001487,"INCLINATION":42.9999,"RA_OF_ASC_NODE":325.4754,"ARG_OF_PERICENTER":285.6734,"MEAN_ANOMALY":79.0235,"EPHEMERIS_TYPE":0,"CLASSIFICATION_TYPE":"U","NORAD_CAT_ID":63667,"ELEMENT_SET_NO":999,"REV_AT_EPOCH":603,"BSTAR":-7.1892e-5,"MEAN_MOTION_DOT":-9.664e-5,"MEAN_MOTION_DDOT":0},{"OBJECT_NAME":"STARLINK-11663 [DTC]","OBJECT_ID":"2025-085E","EPOCH":"2025-11-01T19:04:04.313568","MEAN_MOTION":15.70887959,"ECCENTRICITY":0.000108,"INCLINATION":42.9993,"RA_OF_ASC_NODE":329.6503,"ARG_OF_PERICENTER":55.3689,"MEAN_ANOMALY":304.728,"EPHEMERIS_TYPE":0,"CLASSIFICATION_TYPE":"U","NORAD_CAT_ID":63668,"ELEMENT_SET_NO":999,"REV_AT_EPOCH":3013,"BSTAR":0.0024155986,"MEAN_MOTION_DOT":0.00322493,"MEAN_MOTION_DDOT":0},{"OBJECT_NAME":"STARLINK-11595 [DTC]","OBJECT_ID":"2025-085F","EPOCH":"2025-11-02T08:40:26.425344","MEAN_MOTION":15.71042807,"ECCENTRICITY":0.0002133,"INCLINATION":42.9988,"RA_OF_ASC_NODE":326.1583,"ARG_OF_PERICENTER":245.2575,"MEAN_ANOMALY":114.8071,"EPHEMERIS_TYPE":0,"CLASSIFICATION_TYPE":"U","NORAD_CAT_ID":63669,"ELEMENT_SET_NO":999,"REV_AT_EPOCH":3086,"BSTAR":0.0028708,"MEAN_MOTION_DOT":0.0038898,"MEAN_MOTION_DDOT":0},{"OBJECT_NAME":"STARLINK-11599 [DTC]","OBJECT_ID":"2025-085G","EPOCH":"2025-11-02T08:32:47.808096","MEAN_MOTION":15.70930561,"ECCENTRICITY":0.0001847,"INCLINATION":43.0021,"RA_OF_ASC_NODE":326.1151,"ARG_OF_PERICENTER":278.3285,"MEAN_ANOMALY":81.7373,"EPHEMERIS_TYPE":0,"CLASSIFICATION_TYPE":"U","NORAD_CAT_ID":63670,"ELEMENT_SET_NO":999,"REV_AT_EPOCH":3021,"BSTAR":0.0017878,"MEAN_MOTION_DOT":0.00236492,"MEAN_MOTION_DDOT":0},{"OBJECT_NAME":"STARLINK-11603 [DTC]","OBJECT_ID":"2025-085H","EPOCH":"2025-11-02T08:25:08.832288","MEAN_MOTION":15.71053392,"ECCENTRICITY":0.0001439,"INCLINATION":42.9985,"RA_OF_ASC_NODE":326.0714,"ARG_OF_PERICENTER":227.0236,"MEAN_ANOMALY":133.0511,"EPHEMERIS_TYPE":0,"CLASSIFICATION_TYPE":"U","NORAD_CAT_ID":63671,"ELEMENT_SET_NO":999,"REV_AT_EPOCH":3021,"BSTAR":0.0028565,"MEAN_MOTION_DOT":0.00387139,"MEAN_MOTION_DDOT":0},{"OBJECT_NAME":"STARLINK-11644 [DTC]","OBJECT_ID":"2025-085J","EPOCH":"2025-11-02T08:17:30.117408","MEAN_MOTION":15.7098903,"ECCENTRICITY":0.0001489,"INCLINATION":42.9986,"RA_OF_ASC_NODE":326.0281,"ARG_OF_PERICENTER":241.3607,"MEAN_ANOMALY":118.7111,"EPHEMERIS_TYPE":0,"CLASSIFICATION_TYPE":"U","NORAD_CAT_ID":63672,"ELEMENT_SET_NO":999,"REV_AT_EPOCH":3021,"BSTAR":0.001949,"MEAN_MOTION_DOT":0.00259212,"MEAN_MOTION_DDOT":0}]
